start=new Date('2023-01-18T00:00:00.000Z').valueOf();
sats=[{"BSTAR":"-0.00019060000000","TLE_LINE1":"1 53977U 22125P   23017.56089822 -.00003320  00000-0 -19060-3 0  9995","REV_AT_EPOCH":"1628","REF_FRAME":"TEME","PERIOD":"95.438","MEAN_MOTION_DOT":"-0.00003320","SITE":"AFWTR","ECCENTRICITY":"0.00010860","OBJECT_NAME":"STARLINK-5094","ELEMENT_SET_NO":"999","MEAN_MOTION_DDOT":"0.0000000000000","OBJECT_ID":"2022-125P","RCS_SIZE":"LARGE","NORAD_CAT_ID":"53977","ARG_OF_PERICENTER":"75.9530","MEAN_MOTION":"15.08837575","LAUNCH_DATE":"2022-10-05","OBJECT_TYPE":"PAYLOAD","PERIAPSIS":"539.002","CLASSIFICATION_TYPE":"U","DECAY_DATE":null,"FILE":"3753051","EPOCH":"2023-01-17T13:27:41.606208","EPHEMERIS_TYPE":"0","INCLINATION":"53.2193","MEAN_ELEMENT_THEORY":"SGP4","COUNTRY_CODE":"US","CENTER_NAME":"EARTH","APOAPSIS":"540.504","SEMIMAJOR_AXIS":"6917.888","TIME_SYSTEM":"UTC","TLE_LINE2":"2 53977  53.2193 328.8638 0001086  75.9530 284.1583 15.08837575 16285","GP_ID":"223353252","RA_OF_ASC_NODE":"328.8638","MEAN_ANOMALY":"284.1583"},{"OBJECT_NAME":"STARLINK-5148","ELEMENT_SET_NO":"999","MEAN_MOTION_DDOT":"0.0000000000000","RCS_SIZE":"LARGE","OBJECT_ID":"2022-125Q","NORAD_CAT_ID":"53978","ARG_OF_PERICENTER":"80.4640","REV_AT_EPOCH":"1617","TLE_LINE1":"1 53978U 22125Q   23017.27751354  .00025967  00000-0  16448-2 0  9995","BSTAR":"0.00164480000000","REF_FRAME":"TEME","PERIOD":"95.439","MEAN_MOTION_DOT":"0.00025967","SITE":"AFWTR","ECCENTRICITY":"0.00012240","EPHEMERIS_TYPE":"0","MEAN_ELEMENT_THEORY":"SGP4","INCLINATION":"53.2175","COUNTRY_CODE":"US","TIME_SYSTEM":"UTC","SEMIMAJOR_AXIS":"6917.960","APOAPSIS":"540.672","CENTER_NAME":"EARTH","RA_OF_ASC_NODE":"329.9446","GP_ID":"223324668","TLE_LINE2":"2 53978  53.2175 329.9446 0001224  80.4640 279.6490 15.08813869 16176","MEAN_ANOMALY":"279.6490","MEAN_MOTION":"15.08813869","LAUNCH_DATE":"2022-10-05","PERIAPSIS":"538.979","CLASSIFICATION_TYPE":"U","OBJECT_TYPE":"PAYLOAD","FILE":"3753023","DECAY_DATE":null,"EPOCH":"2023-01-17T06:39:37.169856"},{"MEAN_MOTION_DDOT":"0.0000000000000","OBJECT_ID":"2022-125R","RCS_SIZE":"LARGE","OBJECT_NAME":"STARLINK-5123","ELEMENT_SET_NO":"999","ARG_OF_PERICENTER":"77.1963","NORAD_CAT_ID":"53979","REF_FRAME":"TEME","BSTAR":"-0.00018121000000","TLE_LINE1":"1 53979U 22125R   23017.54984342 -.00003170  00000-0 -18121-3 0  9996","REV_AT_EPOCH":"1628","MEAN_MOTION_DOT":"-0.00003170","ECCENTRICITY":"0.00011070","SITE":"AFWTR","PERIOD":"95.438","INCLINATION":"53.2178","MEAN_ELEMENT_THEORY":"SGP4","EPHEMERIS_TYPE":"0","TLE_LINE2":"2 53979  53.2178 328.7947 0001107  77.1963 282.9153 15.08830878 16288","GP_ID":"223353555","RA_OF_ASC_NODE":"328.7947","MEAN_ANOMALY":"282.9153","COUNTRY_CODE":"US","CENTER_NAME":"EARTH","APOAPSIS":"540.539","SEMIMAJOR_AXIS":"6917.908","TIME_SYSTEM":"UTC","OBJECT_TYPE":"PAYLOAD","PERIAPSIS":"539.007","CLASSIFICATION_TYPE":"U","FILE":"3753052","EPOCH":"2023-01-17T13:11:46.471488","DECAY_DATE":null,"MEAN_MOTION":"15.08830878","LAUNCH_DATE":"2022-10-05"},{"NORAD_CAT_ID":"53980","ARG_OF_PERICENTER":"97.6551","ELEMENT_SET_NO":"999","OBJECT_NAME":"STARLINK-5133","OBJECT_ID":"2022-125S","RCS_SIZE":"LARGE","MEAN_MOTION_DDOT":"0.0000000000000","PERIOD":"95.438","SITE":"AFWTR","ECCENTRICITY":"0.00014580","MEAN_MOTION_DOT":"0.00021627","REV_AT_EPOCH":"1626","BSTAR":"0.00137300000000","TLE_LINE1":"1 53980U 22125S   23017.86262695  .00021627  00000-0  13730-2 0  9998","REF_FRAME":"TEME","TIME_SYSTEM":"UTC","APOAPSIS":"540.774","CENTER_NAME":"EARTH","SEMIMAJOR_AXIS":"6917.901","COUNTRY_CODE":"US","MEAN_ANOMALY":"262.4607","RA_OF_ASC_NODE":"327.2055","GP_ID":"223384495","TLE_LINE2":"2 53980  53.2137 327.2055 0001458  97.6551 262.4607 15.08833386 16260","EPHEMERIS_TYPE":"0","MEAN_ELEMENT_THEORY":"SGP4","INCLINATION":"53.2137","LAUNCH_DATE":"2022-10-05","MEAN_MOTION":"15.08833386","EPOCH":"2023-01-17T20:42:10.968480","FILE":"3753286","DECAY_DATE":null,"PERIAPSIS":"538.757","CLASSIFICATION_TYPE":"U","OBJECT_TYPE":"PAYLOAD"},{"REF_FRAME":"TEME","REV_AT_EPOCH":"1649","TLE_LINE1":"1 53981U 22125T   23017.52632932  .00037135  00000-0  23397-2 0  9998","BSTAR":"0.00233970000000","ECCENTRICITY":"0.00011660","SITE":"AFWTR","MEAN_MOTION_DOT":"0.00037135","PERIOD":"95.438","OBJECT_ID":"2022-125T","RCS_SIZE":"LARGE","MEAN_MOTION_DDOT":"0.0000000000000","ELEMENT_SET_NO":"999","OBJECT_NAME":"STARLINK-5149","ARG_OF_PERICENTER":"53.2595","NORAD_CAT_ID":"53981","EPOCH":"2023-01-17T12:37:54.853248","FILE":"3753053","DECAY_DATE":null,"PERIAPSIS":"538.969","CLASSIFICATION_TYPE":"U","OBJECT_TYPE":"PAYLOAD","LAUNCH_DATE":"2022-10-05","MEAN_MOTION":"15.08830067","MEAN_ELEMENT_THEORY":"SGP4","INCLINATION":"53.2150","EPHEMERIS_TYPE":"0","MEAN_ANOMALY":"306.8504","RA_OF_ASC_NODE":"313.7106","GP_ID":"223353280","TLE_LINE2":"2 53981  53.2150 313.7106 0001166  53.2595 306.8504 15.08830067 16492","TIME_SYSTEM":"UTC","CENTER_NAME":"EARTH","APOAPSIS":"540.582","SEMIMAJOR_AXIS":"6917.911","COUNTRY_CODE":"US"},{"FILE":"3753286","EPOCH":"2023-01-17T19:40:34.185504","DECAY_DATE":null,"OBJECT_TYPE":"PAYLOAD","PERIAPSIS":"539.127","CLASSIFICATION_TYPE":"U","LAUNCH_DATE":"2022-10-05","MEAN_MOTION":"15.08828808","INCLINATION":"53.2179","MEAN_ELEMENT_THEORY":"SGP4","EPHEMERIS_TYPE":"0","MEAN_ANOMALY":"293.4890","TLE_LINE2":"2 53982  53.2179 322.6631 0000943  66.6201 293.4890 15.08828808 16310","GP_ID":"223384014","RA_OF_ASC_NODE":"322.6631","SEMIMAJOR_AXIS":"6917.915","APOAPSIS":"540.432","CENTER_NAME":"EARTH","TIME_SYSTEM":"UTC","COUNTRY_CODE":"US","REF_FRAME":"TEME","BSTAR":"-0.00005771200000","TLE_LINE1":"1 53982U 22125U   23017.81984011 -.00001206  00000-0 -57712-4 0  9991","REV_AT_EPOCH":"1631","SITE":"AFWTR","ECCENTRICITY":"0.00009430","MEAN_MOTION_DOT":"-0.00001206","PERIOD":"95.438","OBJECT_ID":"2022-125U","RCS_SIZE":"LARGE","MEAN_MOTION_DDOT":"0.0000000000000","ELEMENT_SET_NO":"999","OBJECT_NAME":"STARLINK-5120","ARG_OF_PERICENTER":"66.6201","NORAD_CAT_ID":"53982"},{"MEAN_ELEMENT_THEORY":"SGP4","INCLINATION":"53.2186","EPHEMERIS_TYPE":"0","RA_OF_ASC_NODE":"312.5362","TLE_LINE2":"2 53983  53.2186 312.5362 0000811  65.9832 294.1245 15.08828715 16469","GP_ID":"223384255","MEAN_ANOMALY":"294.1245","COUNTRY_CODE":"US","TIME_SYSTEM":"UTC","CENTER_NAME":"EARTH","APOAPSIS":"540.341","SEMIMAJOR_AXIS":"6917.915","PERIAPSIS":"539.219","CLASSIFICATION_TYPE":"U","OBJECT_TYPE":"PAYLOAD","FILE":"3753286","DECAY_DATE":null,"EPOCH":"2023-01-17T19:10:04.025280","MEAN_MOTION":"15.08828715","LAUNCH_DATE":"2022-10-05","MEAN_MOTION_DDOT":"0.0000000000000","RCS_SIZE":"LARGE","OBJECT_ID":"2022-125V","OBJECT_NAME":"STARLINK-5103","ELEMENT_SET_NO":"999","ARG_OF_PERICENTER":"65.9832","NORAD_CAT_ID":"53983","REF_FRAME":"TEME","REV_AT_EPOCH":"1646","TLE_LINE1":"1 53983U 22125V   23017.79865770 -.00001871  00000-0 -99561-4 0  9995","BSTAR":"-0.00009956100000","MEAN_MOTION_DOT":"-0.00001871","ECCENTRICITY":"0.00008110","SITE":"AFWTR","PERIOD":"95.438"},{"PERIOD":"95.439","SITE":"AFWTR","ECCENTRICITY":"0.00009240","MEAN_MOTION_DOT":"0.00016626","TLE_LINE1":"1 53984U 22125W   23017.56593254  .00016626  00000-0  10607-2 0  9990","BSTAR":"0.00106070000000","REV_AT_EPOCH":"1635","REF_FRAME":"TEME","NORAD_CAT_ID":"53984","ARG_OF_PERICENTER":"52.7842","ELEMENT_SET_NO":"999","OBJECT_NAME":"STARLINK-5142","OBJECT_ID":"2022-125W","RCS_SIZE":"LARGE","MEAN_MOTION_DDOT":"0.0000000000000","LAUNCH_DATE":"2022-10-05","MEAN_MOTION":"15.08823452","FILE":"3753061","EPOCH":"2023-01-17T13:34:56.571456","DECAY_DATE":null,"OBJECT_TYPE":"PAYLOAD","CLASSIFICATION_TYPE":"U","PERIAPSIS":"539.157","CENTER_NAME":"EARTH","APOAPSIS":"540.435","SEMIMAJOR_AXIS":"6917.931","TIME_SYSTEM":"UTC","COUNTRY_CODE":"US","MEAN_ANOMALY":"307.3234","TLE_LINE2":"2 53984  53.2167 323.9146 0000924  52.7842 307.3234 15.08823452 16351","GP_ID":"223353581","RA_OF_ASC_NODE":"323.9146","EPHEMERIS_TYPE":"0","INCLINATION":"53.2167","MEAN_ELEMENT_THEORY":"SGP4"},{"NORAD_CAT_ID":"53985","ARG_OF_PERICENTER":"55.3308","ELEMENT_SET_NO":"999","OBJECT_NAME":"STARLINK-5147","RCS_SIZE":"LARGE","OBJECT_ID":"2022-125X","MEAN_MOTION_DDOT":"0.0000000000000","PERIOD":"95.438","SITE":"AFWTR","ECCENTRICITY":"0.00011020","MEAN_MOTION_DOT":"0.00000430","BSTAR":"0.00004508600000","TLE_LINE1":"1 53985U 22125X   23017.83825743  .00000430  00000-0  45086-4 0  9999","REV_AT_EPOCH":"1632","REF_FRAME":"TEME","APOAPSIS":"540.515","CENTER_NAME":"EARTH","SEMIMAJOR_AXIS":"6917.888","TIME_SYSTEM":"UTC","COUNTRY_CODE":"US","MEAN_ANOMALY":"304.7788","TLE_LINE2":"2 53985  53.2174 322.7651 0001102  55.3308 304.7788 15.08837559 16328","GP_ID":"223384730","RA_OF_ASC_NODE":"322.7651","EPHEMERIS_TYPE":"0","INCLINATION":"53.2174","MEAN_ELEMENT_THEORY":"SGP4","LAUNCH_DATE":"2022-10-05","MEAN_MOTION":"15.08837559","FILE":"3753286","EPOCH":"2023-01-17T20:07:05.441952","DECAY_DATE":null,"OBJECT_TYPE":"PAYLOAD","CLASSIFICATION_TYPE":"U","PERIAPSIS":"538.990"},{"LAUNCH_DATE":"2022-10-05","MEAN_MOTION":"15.08827275","FILE":"3753286","EPOCH":"2023-01-17T20:24:13.483584","DECAY_DATE":null,"OBJECT_TYPE":"PAYLOAD","CLASSIFICATION_TYPE":"U","PERIAPSIS":"539.004","CENTER_NAME":"EARTH","APOAPSIS":"540.565","SEMIMAJOR_AXIS":"6917.919","TIME_SYSTEM":"UTC","COUNTRY_CODE":"US","MEAN_ANOMALY":"280.5470","GP_ID":"223383528","TLE_LINE2":"2 53986  53.2162 312.1564 0001128  79.5650 280.5470 15.08827275 16466","RA_OF_ASC_NODE":"312.1564","EPHEMERIS_TYPE":"0","INCLINATION":"53.2162","MEAN_ELEMENT_THEORY":"SGP4","PERIOD":"95.438","ECCENTRICITY":"0.00011280","SITE":"AFWTR","MEAN_MOTION_DOT":"0.00002449","BSTAR":"0.00017193000000","TLE_LINE1":"1 53986U 22125Y   23017.85015606  .00002449  00000-0  17193-3 0  9990","REV_AT_EPOCH":"1646","REF_FRAME":"TEME","NORAD_CAT_ID":"53986","ARG_OF_PERICENTER":"79.5650","ELEMENT_SET_NO":"999","OBJECT_NAME":"STARLINK-5119","OBJECT_ID":"2022-125Y","RCS_SIZE":"LARGE","MEAN_MOTION_DDOT":"0.0000000000000"}];
